FENGYUN 1C DEB          
1 31240U 99025BLW 17341.33611205  .00000318  00000-0  22458-3 0  9998
2 31240  98.9775  14.1920 0047270 305.9933 116.4473 14.04611834547673
